start=new Date('2022-05-09T00:00:00.000Z').valueOf();
sats=[{"ELEMENT_SET_NO":"999","PERIAPSIS":"545.889","ECCENTRICITY":"0.00018800","OBJECT_NAME":"STARLINK-1922","TLE_LINE2":"2 46753  53.0545 131.8663 0001880  50.1974 309.9181 15.06407223 85486","REV_AT_EPOCH":"8548","FILE":"3435746","EPOCH":"2022-05-08T11:37:43.055040","APOAPSIS":"548.493","OBJECT_ID":"2020-074Q","SEMIMAJOR_AXIS":"6925.326","REF_FRAME":"TEME","COUNTRY_CODE":"US","SITE":"AFETR","MEAN_ELEMENT_THEORY":"SGP4","NORAD_CAT_ID":"46753","CLASSIFICATION_TYPE":"U","CENTER_NAME":"EARTH","MEAN_MOTION_DOT":"-0.00000077","PERIOD":"95.592","RA_OF_ASC_NODE":"131.8663","RCS_SIZE":"LARGE","GP_ID":"203016011","INCLINATION":"53.0545","TIME_SYSTEM":"UTC","TLE_LINE1":"1 46753U 20074Q   22128.48452610 -.00000077  00000-0  13737-4 0  9993","DECAY_DATE":null,"OBJECT_TYPE":"PAYLOAD","BSTAR":"0.00001373700000","MEAN_MOTION":"15.06407223","LAUNCH_DATE":"2020-10-24","MEAN_ANOMALY":"309.9181","MEAN_MOTION_DDOT":"0.0000000000000","EPHEMERIS_TYPE":"0","ARG_OF_PERICENTER":"50.1974"},{"TLE_LINE1":"1 46754U 20074R   22128.49190323 -.00000052  00000-0  15423-4 0  9992","TIME_SYSTEM":"UTC","DECAY_DATE":null,"OBJECT_TYPE":"PAYLOAD","BSTAR":"0.00001542300000","CENTER_NAME":"EARTH","PERIOD":"95.593","RA_OF_ASC_NODE":"131.8305","MEAN_MOTION_DOT":"-0.00000052","GP_ID":"203014760","INCLINATION":"53.0538","RCS_SIZE":"LARGE","EPHEMERIS_TYPE":"0","ARG_OF_PERICENTER":"48.4800","MEAN_MOTION":"15.06391551","MEAN_MOTION_DDOT":"0.0000000000000","LAUNCH_DATE":"2020-10-24","MEAN_ANOMALY":"311.6335","FILE":"3435746","APOAPSIS":"548.423","EPOCH":"2022-05-08T11:48:20.439072","SEMIMAJOR_AXIS":"6925.374","OBJECT_ID":"2020-074R","REF_FRAME":"TEME","PERIAPSIS":"546.056","ELEMENT_SET_NO":"999","OBJECT_NAME":"STARLINK-1923","ECCENTRICITY":"0.00017090","REV_AT_EPOCH":"8548","TLE_LINE2":"2 46754  53.0538 131.8305 0001709  48.4800 311.6335 15.06391551 85487","MEAN_ELEMENT_THEORY":"SGP4","NORAD_CAT_ID":"46754","CLASSIFICATION_TYPE":"U","SITE":"AFETR","COUNTRY_CODE":"US"},{"MEAN_MOTION":"15.06399777","MEAN_MOTION_DDOT":"0.0000000000000","LAUNCH_DATE":"2020-10-24","MEAN_ANOMALY":"316.9933","EPHEMERIS_TYPE":"0","ARG_OF_PERICENTER":"43.1234","PERIOD":"95.592","RA_OF_ASC_NODE":"136.8093","MEAN_MOTION_DOT":"-0.00000446","CENTER_NAME":"EARTH","RCS_SIZE":"LARGE","INCLINATION":"53.0541","GP_ID":"203015502","DECAY_DATE":null,"TIME_SYSTEM":"UTC","TLE_LINE1":"1 46755U 20074S   22128.49696755 -.00000446  00000-0 -10988-4 0  9992","BSTAR":"-0.00001098800000","OBJECT_TYPE":"PAYLOAD","COUNTRY_CODE":"US","SITE":"AFETR","MEAN_ELEMENT_THEORY":"SGP4","NORAD_CAT_ID":"46755","CLASSIFICATION_TYPE":"U","ECCENTRICITY":"0.00022760","OBJECT_NAME":"STARLINK-1924","ELEMENT_SET_NO":"999","PERIAPSIS":"545.638","REV_AT_EPOCH":"8541","TLE_LINE2":"2 46755  53.0541 136.8093 0002276  43.1234 316.9933 15.06399777 85417","APOAPSIS":"548.790","EPOCH":"2022-05-08T11:55:37.996320","FILE":"3435746","REF_FRAME":"TEME","OBJECT_ID":"2020-074S","SEMIMAJOR_AXIS":"6925.349"},{"MEAN_ELEMENT_THEORY":"SGP4","NORAD_CAT_ID":"46756","CLASSIFICATION_TYPE":"U","COUNTRY_CODE":"US","SITE":"AFETR","FILE":"3435746","EPOCH":"2022-05-08T11:43:40.077984","APOAPSIS":"548.918","OBJECT_ID":"2020-074T","SEMIMAJOR_AXIS":"6925.369","REF_FRAME":"TEME","ELEMENT_SET_NO":"999","PERIAPSIS":"545.549","ECCENTRICITY":"0.00024320","OBJECT_NAME":"STARLINK-1925","TLE_LINE2":"2 46756  53.0535 136.8582 0002432  44.7194 315.3991 15.06393481 85413","REV_AT_EPOCH":"8541","EPHEMERIS_TYPE":"0","ARG_OF_PERICENTER":"44.7194","MEAN_MOTION":"15.06393481","LAUNCH_DATE":"2020-10-24","MEAN_MOTION_DDOT":"0.0000000000000","MEAN_ANOMALY":"315.3991","TIME_SYSTEM":"UTC","TLE_LINE1":"1 46756U 20074T   22128.48865831 -.00000298  00000-0 -10783-5 0  9994","DECAY_DATE":null,"BSTAR":"-0.00000107830000","OBJECT_TYPE":"PAYLOAD","CENTER_NAME":"EARTH","PERIOD":"95.593","RA_OF_ASC_NODE":"136.8582","MEAN_MOTION_DOT":"-0.00000298","RCS_SIZE":"LARGE","GP_ID":"203015755","INCLINATION":"53.0535"},{"MEAN_ELEMENT_THEORY":"SGP4","NORAD_CAT_ID":"46757","CLASSIFICATION_TYPE":"U","SITE":"AFETR","COUNTRY_CODE":"US","APOAPSIS":"548.773","EPOCH":"2022-05-08T09:15:02.905920","FILE":"3435746","REF_FRAME":"TEME","SEMIMAJOR_AXIS":"6925.359","OBJECT_ID":"2020-074U","OBJECT_NAME":"STARLINK-1926","ECCENTRICITY":"0.00022370","PERIAPSIS":"545.674","ELEMENT_SET_NO":"999","TLE_LINE2":"2 46757  53.0527 137.3254 0002237  39.4050 320.7101 15.06396737 85399","REV_AT_EPOCH":"8539","EPHEMERIS_TYPE":"0","ARG_OF_PERICENTER":"39.4050","MEAN_MOTION":"15.06396737","MEAN_ANOMALY":"320.7101","LAUNCH_DATE":"2020-10-24","MEAN_MOTION_DDOT":"0.0000000000000","DECAY_DATE":null,"TLE_LINE1":"1 46757U 20074U   22128.38545030 -.00000383  00000-0 -68267-5 0  9995","TIME_SYSTEM":"UTC","OBJECT_TYPE":"PAYLOAD","BSTAR":"-0.00000682670000","PERIOD":"95.592","RA_OF_ASC_NODE":"137.3254","MEAN_MOTION_DOT":"-0.00000383","CENTER_NAME":"EARTH","INCLINATION":"53.0527","GP_ID":"203016511","RCS_SIZE":"LARGE"},{"BSTAR":"-0.00000088266000","OBJECT_TYPE":"PAYLOAD","TIME_SYSTEM":"UTC","TLE_LINE1":"1 46758U 20074V   22128.74393406 -.00000295  00000-0 -88266-6 0  9998","DECAY_DATE":null,"RCS_SIZE":"LARGE","INCLINATION":"53.0529","GP_ID":"203024128","CENTER_NAME":"EARTH","PERIOD":"95.592","MEAN_MOTION_DOT":"-0.00000295","RA_OF_ASC_NODE":"135.7039","ARG_OF_PERICENTER":"36.0462","EPHEMERIS_TYPE":"0","LAUNCH_DATE":"2020-10-24","MEAN_MOTION_DDOT":"0.0000000000000","MEAN_ANOMALY":"324.0700","MEAN_MOTION":"15.06398532","OBJECT_ID":"2020-074V","SEMIMAJOR_AXIS":"6925.353","REF_FRAME":"TEME","FILE":"3435959","APOAPSIS":"549.000","EPOCH":"2022-05-08T17:51:15.902784","REV_AT_EPOCH":"8547","TLE_LINE2":"2 46758  53.0529 135.7039 0002573  36.0462 324.0700 15.06398532 85474","ELEMENT_SET_NO":"999","PERIAPSIS":"545.436","ECCENTRICITY":"0.00025730","OBJECT_NAME":"STARLINK-1928","NORAD_CAT_ID":"46758","CLASSIFICATION_TYPE":"U","MEAN_ELEMENT_THEORY":"SGP4","COUNTRY_CODE":"US","SITE":"AFETR"},{"REF_FRAME":"TEME","OBJECT_ID":"2020-074W","SEMIMAJOR_AXIS":"6925.330","EPOCH":"2022-05-08T09:46:54.614784","APOAPSIS":"548.490","FILE":"3435746","TLE_LINE2":"2 46759  53.0546 147.2186 0001870  48.1348 311.9800 15.06406213 85259","REV_AT_EPOCH":"8525","ECCENTRICITY":"0.00018700","OBJECT_NAME":"STARLINK-1833","ELEMENT_SET_NO":"999","PERIAPSIS":"545.899","NORAD_CAT_ID":"46759","CLASSIFICATION_TYPE":"U","MEAN_ELEMENT_THEORY":"SGP4","COUNTRY_CODE":"US","SITE":"AFETR","BSTAR":"0.00002579100000","OBJECT_TYPE":"PAYLOAD","DECAY_DATE":null,"TIME_SYSTEM":"UTC","TLE_LINE1":"1 46759U 20074W   22128.40757656  .00000103  00000-0  25791-4 0  9991","RCS_SIZE":"LARGE","INCLINATION":"53.0546","GP_ID":"203015004","PERIOD":"95.592","RA_OF_ASC_NODE":"147.2186","MEAN_MOTION_DOT":"0.00000103","CENTER_NAME":"EARTH","ARG_OF_PERICENTER":"48.1348","EPHEMERIS_TYPE":"0","MEAN_ANOMALY":"311.9800","LAUNCH_DATE":"2020-10-24","MEAN_MOTION_DDOT":"0.0000000000000","MEAN_MOTION":"15.06406213"},{"RCS_SIZE":"LARGE","INCLINATION":"53.0550","GP_ID":"203016255","CENTER_NAME":"EARTH","PERIOD":"95.592","MEAN_MOTION_DOT":"0.00000094","RA_OF_ASC_NODE":"147.1686","OBJECT_TYPE":"PAYLOAD","BSTAR":"0.00002520200000","TIME_SYSTEM":"UTC","TLE_LINE1":"1 46760U 20074X   22128.41863989  .00000094  00000-0  25202-4 0  9997","DECAY_DATE":null,"MEAN_ANOMALY":"312.9588","LAUNCH_DATE":"2020-10-24","MEAN_MOTION_DDOT":"0.0000000000000","MEAN_MOTION":"15.06400996","ARG_OF_PERICENTER":"47.1562","EPHEMERIS_TYPE":"0","TLE_LINE2":"2 46760  53.0550 147.1686 0001912  47.1562 312.9588 15.06400996 85261","REV_AT_EPOCH":"8526","PERIAPSIS":"545.886","ELEMENT_SET_NO":"999","ECCENTRICITY":"0.00019120","OBJECT_NAME":"STARLINK-1896","OBJECT_ID":"2020-074X","SEMIMAJOR_AXIS":"6925.346","REF_FRAME":"TEME","FILE":"3435746","APOAPSIS":"548.535","EPOCH":"2022-05-08T10:02:50.486496","COUNTRY_CODE":"US","SITE":"AFETR","NORAD_CAT_ID":"46760","CLASSIFICATION_TYPE":"U","MEAN_ELEMENT_THEORY":"SGP4"},{"EPHEMERIS_TYPE":"0","ARG_OF_PERICENTER":"13.6832","MEAN_MOTION":"15.42178876","MEAN_MOTION_DDOT":"0.0000000000000","LAUNCH_DATE":"2020-10-24","MEAN_ANOMALY":"346.4291","TLE_LINE1":"1 46763U 20074AA  22128.44014280  .00015781  00000-0  37102-3 0  9995","TIME_SYSTEM":"UTC","DECAY_DATE":null,"OBJECT_TYPE":"PAYLOAD","BSTAR":"0.00037102000000","CENTER_NAME":"EARTH","PERIOD":"93.374","MEAN_MOTION_DOT":"0.00015781","RA_OF_ASC_NODE":"118.9797","GP_ID":"203016012","INCLINATION":"53.0555","RCS_SIZE":"LARGE","MEAN_ELEMENT_THEORY":"SGP4","NORAD_CAT_ID":"46763","CLASSIFICATION_TYPE":"U","SITE":"AFETR","COUNTRY_CODE":"US","FILE":"3435746","EPOCH":"2022-05-08T10:33:48.337920","APOAPSIS":"442.684","SEMIMAJOR_AXIS":"6817.817","OBJECT_ID":"2020-074AA","REF_FRAME":"TEME","PERIAPSIS":"436.680","ELEMENT_SET_NO":"999","OBJECT_NAME":"STARLINK-1902","ECCENTRICITY":"0.00044030","TLE_LINE2":"2 46763  53.0555 118.9797 0004403  13.6832 346.4291 15.42178876 85660","REV_AT_EPOCH":"8566"},{"NORAD_CAT_ID":"46764","CLASSIFICATION_TYPE":"U","MEAN_ELEMENT_THEORY":"SGP4","COUNTRY_CODE":"US","SITE":"AFETR","REF_FRAME":"TEME","OBJECT_ID":"2020-074AB","SEMIMAJOR_AXIS":"6925.355","APOAPSIS":"548.756","EPOCH":"2022-05-08T17:49:55.790976","FILE":"3435928","TLE_LINE2":"2 46764  53.0557 145.7127 0002218  38.5997 321.5150 15.06397892 85320","REV_AT_EPOCH":"8532","ECCENTRICITY":"0.00022180","OBJECT_NAME":"STARLINK-1903","PERIAPSIS":"545.684","ELEMENT_SET_NO":"999","ARG_OF_PERICENTER":"38.5997","EPHEMERIS_TYPE":"0","MEAN_MOTION_DDOT":"0.0000000000000","LAUNCH_DATE":"2020-10-24","MEAN_ANOMALY":"321.5150","MEAN_MOTION":"15.06397892","BSTAR":"0.00000543390000","OBJECT_TYPE":"PAYLOAD","DECAY_DATE":null,"TIME_SYSTEM":"UTC","TLE_LINE1":"1 46764U 20074AB  22128.74300684 -.00000201  00000-0  54339-5 0  9990","RCS_SIZE":"LARGE","GP_ID":"203023170","INCLINATION":"53.0557","PERIOD":"95.592","MEAN_MOTION_DOT":"-0.00000201","RA_OF_ASC_NODE":"145.7127","CENTER_NAME":"EARTH"}];
